{"type": "FeatureCollection","features": [{"type": "Feature", "geometry": {"type":"Point","coordinates":[140.6538698,-2.6062761]}, "properties": {"osm_id": 6683938107, "osm_type": "nodes", "military": "office", "landuse": null, "building": null, "name": "Komando Resor militar", "amenity": null}},{"type": "Feature", "geometry": {"type":"Point","coordinates":[140.7038796,-2.5428153]}, "properties": {"osm_id": 2935664462, "osm_type": "nodes", "military": null, "landuse": null, "building": null, "name": "Polres Jayapura", "amenity": "police"}},{"type": "Feature", "geometry": {"type":"Point","coordinates":[140.6974152,-2.5674508]}, "properties": {"osm_id": 4650394489, "osm_type": "nodes", "military": null, "landuse": null, "building": null, "name": "Kantor Polsek Jayapura Selatan", "amenity": "police"}},{"type": "Feature", "geometry": {"type":"Point","coordinates":[140.6645404,-2.6121192]}, "properties": {"osm_id": 5817623358, "osm_type": "nodes", "military": null, "landuse": null, "building": null, "name": "Polsek Abepura", "amenity": "police"}},{"type": "Feature", "geometry": {"type":"Polygon","coordinates":[[[140.7036116,-2.5429815],[140.7037012,-2.5432342],[140.7037971,-2.5432002],[140.7041912,-2.5430608],[140.7041579,-2.5429667],[140.7037658,-2.5431055],[140.7037096,-2.5429469],[140.7036116,-2.5429815]]]}, "properties": {"osm_id": 474956326, "osm_type": "ways_poly", "military": null, "landuse": null, "building": "yes", "name": "Polres Jayapura", "amenity": "police"}},{"type": "Feature", "geometry": {"type":"Polygon","coordinates":[[[140.6972259,-2.5672524],[140.6973559,-2.56744],[140.6975048,-2.5673355],[140.6974364,-2.5670903],[140.6972259,-2.5672524]]]}, "properties": {"osm_id": 486835568, "osm_type": "ways_poly", "military": null, "landuse": null, "building": null, "name": "polsek jayapura selatan", "amenity": "police"}},{"type": "Feature", "geometry": {"type":"MultiPolygon","coordinates":[[[[140.6775602,-2.5526677],[140.6778821,-2.5529678],[140.67844,-2.55315],[140.6783756,-2.5537181],[140.6786545,-2.5540718],[140.6790086,-2.5544791],[140.6801244,-2.5546077],[140.6810578,-2.554522],[140.6818517,-2.5540075],[140.6824096,-2.5540504],[140.6832572,-2.5544684],[140.6834181,-2.5547363],[140.6835254,-2.5553044],[140.683976,-2.555701],[140.6846305,-2.5556474],[140.6856927,-2.5554759],[140.6867226,-2.5550043],[140.6872483,-2.554672],[140.6882218,-2.5546096],[140.6892196,-2.5544059],[140.6894503,-2.5540147],[140.6895629,-2.5536824],[140.6896086,-2.5533186],[140.6901169,-2.5531894],[140.6906469,-2.5532232],[140.6913309,-2.5532725],[140.6915712,-2.5534972],[140.691753,-2.5537803],[140.6920025,-2.5538142],[140.6920857,-2.5537834],[140.6922983,-2.5534756],[140.6924339,-2.5533617],[140.692779,-2.5529831],[140.6934664,-2.5520446],[140.6937936,-2.5516963],[140.6940511,-2.551364],[140.6942657,-2.551155],[140.6943301,-2.5509245],[140.6942764,-2.5507531],[140.6940243,-2.5505869],[140.6937615,-2.5504958],[140.6932894,-2.5504958],[140.6922111,-2.5500671],[140.6912824,-2.54927],[140.6909641,-2.5486915],[140.6901451,-2.5483882],[140.6893142,-2.5484478],[140.6886538,-2.5489592],[140.688171,-2.5493129],[140.6876775,-2.5495809],[140.6869587,-2.5496666],[140.6859287,-2.5499774],[140.6853922,-2.5503419],[140.6848987,-2.5508456],[140.6842013,-2.5509957],[140.6835147,-2.5509742],[140.6828173,-2.5508563],[140.682077,-2.5508671],[140.6808539,-2.5510171],[140.6803497,-2.5512636],[140.6800922,-2.5513815],[140.6798132,-2.551403],[140.6794485,-2.551135],[140.6787726,-2.5511672],[140.678397,-2.5512851],[140.6778606,-2.5515745],[140.6776353,-2.5519925],[140.6775602,-2.5526677]],[[140.6798064,-2.5528659],[140.6798204,-2.5526839],[140.6799371,-2.5526746],[140.6799558,-2.5524973],[140.6798671,-2.5524693],[140.6799091,-2.5523107],[140.6800586,-2.5522267],[140.6805022,-2.5520448],[140.6809739,-2.5517368],[140.6813101,-2.5515409],[140.681637,-2.5514149],[140.6817677,-2.5514222],[140.6818709,-2.5514785],[140.6823362,-2.5514569],[140.6824779,-2.5514938],[140.6825549,-2.5514323],[140.6825796,-2.5513184],[140.6826227,-2.5512137],[140.6827059,-2.5511799],[140.6830664,-2.5512168],[140.6832389,-2.5512784],[140.6833498,-2.5515092],[140.6833622,-2.55158],[140.683316,-2.5515923],[140.6832451,-2.5516139],[140.6832174,-2.5516662],[140.6833498,-2.5517462],[140.6836087,-2.5518478],[140.6838705,-2.5519032],[140.6841694,-2.5519525],[140.6842279,-2.5519278],[140.684154,-2.5518601],[140.6842002,-2.5517893],[140.6844066,-2.5518047],[140.6845145,-2.5518724],[140.6845669,-2.5520079],[140.6846993,-2.5521741],[140.684801,-2.5521895],[140.6848904,-2.5521587],[140.684989,-2.5520417],[140.6850598,-2.5521064],[140.6849961,-2.552234],[140.6848875,-2.5524308],[140.6847474,-2.5524261],[140.684626,-2.5525941],[140.6844625,-2.5526081],[140.6843458,-2.5525941],[140.6841777,-2.5525241],[140.6840142,-2.5524448],[140.6836313,-2.5524261],[140.6835472,-2.5524634],[140.6833371,-2.5522628],[140.6832997,-2.5521835],[140.6831503,-2.5521415],[140.6830055,-2.5521135],[140.6828841,-2.5520575],[140.6826319,-2.5520809],[140.6824171,-2.5520809],[140.6822723,-2.5520342],[140.6822676,-2.5519362],[140.6821275,-2.5518709],[140.6819874,-2.5518849],[140.6817259,-2.5518476],[140.6815298,-2.5518989],[140.6815111,-2.5519736],[140.6815998,-2.5520715],[140.6817586,-2.5520902],[140.6819688,-2.5521555],[140.6822676,-2.5522022],[140.6823517,-2.5522162],[140.6824778,-2.5521509],[140.6825478,-2.5521415],[140.6826086,-2.5521928],[140.6826086,-2.5522582],[140.6826179,-2.5523468],[140.6828794,-2.5525148],[140.6830102,-2.5526454],[140.6831456,-2.552734],[140.6833044,-2.5528693],[140.6834118,-2.55286],[140.6834678,-2.5528273],[140.6836126,-2.5528647],[140.6838414,-2.552958],[140.6840563,-2.5530186],[140.6843551,-2.5530933],[140.68464,-2.5531632],[140.6848595,-2.5531586],[140.6849762,-2.5531306],[140.6850323,-2.5530653],[140.685121,-2.5529953],[140.6852191,-2.5529393],[140.6854666,-2.5529393],[140.6856254,-2.5529766],[140.6857375,-2.5529206],[140.6859289,-2.5528973],[140.6861764,-2.5529766],[140.6863632,-2.5529766],[140.6868022,-2.5528786],[140.686905,-2.5528087],[140.686975,-2.5527573],[140.6870497,-2.5527107],[140.6872879,-2.5527294],[140.6873673,-2.552818],[140.6875121,-2.5528413],[140.6875774,-2.5527807],[140.6876101,-2.5526874],[140.6877736,-2.5526687],[140.6877923,-2.5525941],[140.6881705,-2.5526454],[140.6884461,-2.552706],[140.688432,-2.5528647],[140.6882919,-2.5528973],[140.6880771,-2.552902],[140.6879931,-2.552944],[140.6875961,-2.5530233],[140.6876209,-2.5532361],[140.6874814,-2.5532146],[140.6873473,-2.5532843],[140.6873259,-2.5531932],[140.68724,-2.5530806],[140.6871328,-2.5530217],[140.6868806,-2.5530646],[140.6867733,-2.5530324],[140.6866661,-2.5530485],[140.6866607,-2.5531449],[140.6866768,-2.5532575],[140.6865695,-2.553295],[140.6864461,-2.5531182],[140.6863281,-2.5531449],[140.6862691,-2.5532307],[140.6861672,-2.5534236],[140.685915,-2.553638],[140.6856736,-2.5536862],[140.6854108,-2.5537934],[140.6851694,-2.553847],[140.6850889,-2.5537773],[140.6849548,-2.5537452],[140.6846544,-2.5538202],[140.6845471,-2.5539381],[140.6846008,-2.5541471],[140.6847617,-2.5543454],[140.6848797,-2.5544151],[140.6848422,-2.5545651],[140.6847349,-2.5545276],[140.6845149,-2.5543454],[140.6843647,-2.5542328],[140.6842199,-2.5539917],[140.6840804,-2.5538202],[140.6838873,-2.5536755],[140.6837049,-2.5536755],[140.6835976,-2.553638],[140.6833991,-2.5534611],[140.6832757,-2.5533379],[140.6831845,-2.5532093],[140.6828305,-2.5530806],[140.6826642,-2.5530378],[140.6824603,-2.5528556],[140.6822029,-2.5526466],[140.6819668,-2.5525876],[140.681704,-2.5526251],[140.6816235,-2.5526626],[140.681602,-2.552818],[140.6816986,-2.5529681],[140.6817362,-2.5530699],[140.6816557,-2.5531449],[140.6815108,-2.5530646],[140.6813392,-2.5529359],[140.681227,-2.5529867],[140.6811068,-2.5530082],[140.6810606,-2.5530482],[140.6810421,-2.5531067],[140.6808604,-2.5532144],[140.680771,-2.5533006],[140.6806632,-2.5534022],[140.6806354,-2.5535776],[140.6806447,-2.5537285],[140.6805368,-2.5537746],[140.6803551,-2.55383],[140.6802287,-2.55379],[140.68001,-2.5535284],[140.679933,-2.5533068],[140.6798929,-2.5531498],[140.6798128,-2.5531036],[140.6798064,-2.5528659]],[[140.6809063,-2.5515],[140.6809307,-2.5514204],[140.6810112,-2.5514449],[140.6809869,-2.5515246],[140.6809063,-2.5515]],[[140.6853068,-2.5521278],[140.6854357,-2.5520887],[140.6855269,-2.5523888],[140.685398,-2.5524279],[140.6853068,-2.5521278]],[[140.6859129,-2.5523393],[140.685988,-2.5521787],[140.6861946,-2.5522752],[140.6861194,-2.5524358],[140.6859129,-2.5523393]],[[140.6861068,-2.5512596],[140.6861497,-2.5512496],[140.6861455,-2.5512315],[140.6863135,-2.5511922],[140.6863192,-2.5512165],[140.6863666,-2.5512054],[140.686429,-2.551472],[140.6863977,-2.5514793],[140.6864803,-2.5518316],[140.6862837,-2.5518776],[140.6861989,-2.5515157],[140.6861685,-2.5515228],[140.6861068,-2.5512596]],[[140.6861747,-2.5524152],[140.6862465,-2.5523978],[140.6862777,-2.5525248],[140.6862058,-2.5525424],[140.6861747,-2.5524152]],[[140.6863019,-2.5525404],[140.6864869,-2.5524708],[140.6865314,-2.5525886],[140.6863463,-2.5526583],[140.6863019,-2.5525404]],[[140.6863099,-2.5522269],[140.6865111,-2.552176],[140.6865336,-2.5522647],[140.6863324,-2.5523156],[140.6863099,-2.5522269]],[[140.6864307,-2.550863],[140.6868464,-2.5507719],[140.6868572,-2.550821],[140.6864415,-2.5509121],[140.6864307,-2.550863]],[[140.6864789,-2.5510264],[140.687014,-2.5509179],[140.6870489,-2.5510893],[140.6865138,-2.5511979],[140.6864789,-2.5510264]],[[140.6865406,-2.552168],[140.6867444,-2.5521037],[140.6867685,-2.5521798],[140.6865647,-2.5522441],[140.6865406,-2.552168]],[[140.6865933,-2.5517484],[140.6871556,-2.5516382],[140.6871926,-2.5518266],[140.6866303,-2.5519367],[140.6865933,-2.5517484]],[[140.6866528,-2.5513389],[140.6867604,-2.5513178],[140.686731,-2.5511688],[140.6869013,-2.5511353],[140.6869308,-2.551285],[140.6870296,-2.5512656],[140.6870725,-2.5514827],[140.6869839,-2.5515001],[140.6870122,-2.5516438],[140.6868416,-2.5516773],[140.6868037,-2.5514849],[140.686686,-2.5515081],[140.6866528,-2.5513389]],[[140.6866748,-2.5506835],[140.6868276,-2.5506433],[140.686853,-2.5507397],[140.6867001,-2.5507799],[140.6866748,-2.5506835]],[[140.6870808,-2.5505124],[140.6872227,-2.5504817],[140.687282,-2.5507551],[140.6871401,-2.5507858],[140.6870808,-2.5505124]],[[140.6875464,-2.5540035],[140.6876701,-2.5539899],[140.6876805,-2.5540852],[140.6875569,-2.5540987],[140.6875464,-2.5540035]],[[140.6876242,-2.5538266],[140.6878369,-2.5538033],[140.6878477,-2.5539019],[140.687635,-2.5539252],[140.6876242,-2.5538266]],[[140.6876269,-2.5536337],[140.687828,-2.5536096],[140.6878423,-2.5537282],[140.6876411,-2.5537523],[140.6876269,-2.5536337]],[[140.6876349,-2.5520474],[140.6876816,-2.5519746],[140.6879579,-2.5521514],[140.6879112,-2.5522242],[140.6876349,-2.5520474]],[[140.6876697,-2.5503077],[140.6881534,-2.5501599],[140.6884184,-2.5512649],[140.6884738,-2.5513111],[140.6884184,-2.5514065],[140.6881102,-2.551505],[140.6880764,-2.5513911],[140.6879161,-2.5514004],[140.6876697,-2.5503077]],[[140.6876744,-2.553989],[140.6877671,-2.5539789],[140.6877771,-2.5540705],[140.6877165,-2.5540771],[140.6877122,-2.5540384],[140.6876802,-2.5540419],[140.6876744,-2.553989]],[[140.688056,-2.553556],[140.6884128,-2.5535345],[140.6884184,-2.5536286],[140.6880617,-2.55365],[140.688056,-2.553556]],[[140.6880936,-2.5539928],[140.688209,-2.5539884],[140.688217,-2.5542028],[140.6881017,-2.5542071],[140.6880936,-2.5539928]],[[140.6881942,-2.5500471],[140.6882857,-2.5498594],[140.6883627,-2.5497178],[140.6884058,-2.5496163],[140.6885815,-2.5495547],[140.6887355,-2.5495332],[140.6887787,-2.5494593],[140.6889327,-2.5495239],[140.6891299,-2.5494439],[140.6892439,-2.54937],[140.6893271,-2.5492623],[140.6893825,-2.54917],[140.6895027,-2.5491207],[140.6895828,-2.5490838],[140.6896352,-2.549093],[140.6897091,-2.5490869],[140.6897892,-2.5490715],[140.6899002,-2.5491484],[140.6900758,-2.5491915],[140.6902535,-2.5492051],[140.6901885,-2.5493586],[140.6899811,-2.5495251],[140.6898348,-2.5495901],[140.6897616,-2.5495941],[140.6897575,-2.5497201],[140.6897047,-2.5498135],[140.6896274,-2.5499028],[140.6895014,-2.5499922],[140.6893144,-2.5500368],[140.689229,-2.5500125],[140.689042,-2.5499353],[140.6888957,-2.5498947],[140.6886314,-2.5499516],[140.688359,-2.5500044],[140.6881942,-2.5500471]],[[140.6882058,-2.5501999],[140.6883968,-2.5501322],[140.688634,-2.5501014],[140.6888589,-2.5500707],[140.6889052,-2.5501353],[140.6888805,-2.5502923],[140.6888805,-2.5504923],[140.6889206,-2.5507478],[140.6889822,-2.5510248],[140.6889791,-2.5511603],[140.6886186,-2.5512218],[140.6885323,-2.5512834],[140.6884338,-2.5512003],[140.6882058,-2.5501999]],[[140.6882246,-2.5539801],[140.6883435,-2.5539759],[140.6883505,-2.5541711],[140.6882315,-2.5541753],[140.6882246,-2.5539801]],[[140.6883032,-2.5532369],[140.6883135,-2.5531782],[140.6885281,-2.5532157],[140.6885178,-2.5532744],[140.6883032,-2.5532369]],[[140.6883363,-2.553761],[140.6884801,-2.5537447],[140.6884892,-2.5538253],[140.6883455,-2.5538416],[140.6883363,-2.553761]],[[140.6883746,-2.5531602],[140.6883967,-2.5530281],[140.6885415,-2.5530522],[140.6885195,-2.5531843],[140.6883746,-2.5531602]],[[140.6883809,-2.5539462],[140.688504,-2.5539442],[140.6885077,-2.5541795],[140.6883846,-2.5541815],[140.6883809,-2.5539462]],[[140.6883962,-2.5501317],[140.6884738,-2.5500645],[140.6886001,-2.5500276],[140.688785,-2.5499937],[140.6889052,-2.5499691],[140.6890685,-2.5500337],[140.689204,-2.5500768],[140.6892225,-2.5501291],[140.6891455,-2.5501784],[140.6891177,-2.5502246],[140.6890869,-2.5502861],[140.6890346,-2.5503662],[140.6889914,-2.5504616],[140.6889668,-2.5506062],[140.6889637,-2.5507232],[140.6889212,-2.5507473],[140.6888813,-2.5504924],[140.6888828,-2.5502923],[140.6889077,-2.5501349],[140.6888587,-2.5500696],[140.6886324,-2.5501],[140.6883962,-2.5501317]],[[140.688503,-2.5537307],[140.6887708,-2.5537004],[140.6887826,-2.5538043],[140.6885149,-2.5538347],[140.688503,-2.5537307]],[[140.6885201,-2.5535292],[140.6887775,-2.5535077],[140.688785,-2.5535967],[140.6885275,-2.5536181],[140.6885201,-2.5535292]],[[140.6885206,-2.55397],[140.6886542,-2.5539633],[140.6886633,-2.5541435],[140.6885297,-2.5541503],[140.6885206,-2.55397]],[[140.6885592,-2.5531518],[140.6886193,-2.5529826],[140.6887024,-2.553012],[140.6886423,-2.5531813],[140.6885592,-2.5531518]],[[140.6886609,-2.5539404],[140.6888153,-2.5539262],[140.6888341,-2.5541299],[140.6886797,-2.5541441],[140.6886609,-2.5539404]],[[140.6886777,-2.5521374],[140.6888011,-2.551907],[140.6886884,-2.551907],[140.6886911,-2.5517292],[140.689042,-2.5516452],[140.6892819,-2.5515599],[140.6894851,-2.5514137],[140.689599,-2.5513243],[140.6897047,-2.551235],[140.6899039,-2.5511944],[140.6901112,-2.5512025],[140.6902982,-2.5512553],[140.6904527,-2.5512878],[140.6906601,-2.5512878],[140.690969,-2.5512675],[140.6911882,-2.5512589],[140.6911185,-2.5513068],[140.6909737,-2.5513979],[140.6908074,-2.5513979],[140.6907216,-2.55143],[140.6906089,-2.5515319],[140.6904909,-2.5515801],[140.6904372,-2.5517141],[140.6903407,-2.5517998],[140.6898579,-2.5517248],[140.6896004,-2.5517141],[140.6893483,-2.5517355],[140.6893053,-2.5518159],[140.6893804,-2.5518963],[140.6893751,-2.5520195],[140.6892678,-2.5521857],[140.6892302,-2.5522875],[140.6893644,-2.5524483],[140.6893214,-2.5525126],[140.6892356,-2.5524965],[140.689139,-2.5524322],[140.6889674,-2.5524322],[140.6887796,-2.5523196],[140.6886777,-2.5521374]],[[140.6889998,-2.5534483],[140.6890055,-2.5533791],[140.6891343,-2.5533898],[140.6891285,-2.553459],[140.6889998,-2.5534483]],[[140.6890461,-2.5510197],[140.6890583,-2.5507517],[140.6892656,-2.5506826],[140.6893713,-2.5506298],[140.6897087,-2.5506054],[140.6898958,-2.5504633],[140.690099,-2.5502724],[140.6902535,-2.5501623],[140.6903031,-2.5502832],[140.6904051,-2.5504279],[140.6903997,-2.5505404],[140.6905016,-2.5506101],[140.6905982,-2.5505244],[140.6908503,-2.5505083],[140.69092,-2.5506637],[140.6910917,-2.5508137],[140.6911883,-2.5508298],[140.6913385,-2.5508888],[140.6913438,-2.5510281],[140.6913143,-2.5511136],[140.6911113,-2.5511334],[140.6907576,-2.5511862],[140.6904893,-2.5512025],[140.6901722,-2.5511131],[140.6897535,-2.5510522],[140.689412,-2.5510766],[140.6890949,-2.5511497],[140.6890461,-2.5510197]],[[140.6890625,-2.5532189],[140.6890699,-2.5531353],[140.6893408,-2.5531594],[140.6893334,-2.553243],[140.6890625,-2.5532189]],[[140.68955,-2.5527736],[140.6895907,-2.5527717],[140.689596,-2.5528923],[140.6895554,-2.5528941],[140.68955,-2.5527736]],[[140.689601,-2.5523904],[140.68977,-2.5523797],[140.6897807,-2.5525485],[140.6896117,-2.5525592],[140.689601,-2.5523904]],[[140.6896654,-2.5527628],[140.6897111,-2.5527601],[140.6897192,-2.5528941],[140.6896734,-2.5528968],[140.6896654,-2.5527628]]],[[[140.6799094,-2.5527514],[140.6799116,-2.5528869],[140.6800472,-2.5528847],[140.6800451,-2.5527492],[140.6799094,-2.5527514]]]]}, "properties": {"osm_id": 15045318, "osm_type": "relations", "military": null, "landuse": "military", "building": null, "name": "Komando Daerah XVII/Cenderawasih", "amenity": null}}]}